CCSDS_OMM_VERS = 2.0
CREATION_DATE  = 
ORIGINATOR     = 

OBJECT_NAME    = SL-3 R/B
OBJECT_ID      = 1982-079B
CENTER_NAME    = EARTH
REF_FRAME      = TEME
TIME_SYSTEM    = UTC
MEAN_ELEMENT_THEORY = SGP/SGP4

EPOCH          = 2026-02-06T05:28:46.423776
MEAN_MOTION    = 15.24341445
ECCENTRICITY   = .0024108
INCLINATION    = 81.1437
RA_OF_ASC_NODE = 230.2157
ARG_OF_PERICENTER = 273.2267
MEAN_ANOMALY   = 86.6208

EPHEMERIS_TYPE = 0
CLASSIFICATION_TYPE = U
NORAD_CAT_ID   = 13403
ELEMENT_SET_NO = 999
REV_AT_EPOCH   = 37290
BSTAR          = .2926054E-3
MEAN_MOTION_DOT = .7242E-4
MEAN_MOTION_DDOT = 0

CCSDS_OMM_VERS = 2.0
CREATION_DATE  = 
ORIGINATOR     = 

OBJECT_NAME    = SL-14 R/B
OBJECT_ID      = 1982-092B
CENTER_NAME    = EARTH
REF_FRAME      = TEME
TIME_SYSTEM    = UTC
MEAN_ELEMENT_THEORY = SGP/SGP4

EPOCH          = 2026-02-06T08:09:29.579616
MEAN_MOTION    = 14.86631017
ECCENTRICITY   = .00214653
INCLINATION    = 82.5700
RA_OF_ASC_NODE = 170.7126
ARG_OF_PERICENTER = 48.2715
MEAN_ANOMALY   = 341.8204

EPHEMERIS_TYPE = 0
CLASSIFICATION_TYPE = U
NORAD_CAT_ID   = 13553
ELEMENT_SET_NO = 999
REV_AT_EPOCH   = 32427
BSTAR          = .85437833E-4
MEAN_MOTION_DOT = .786E-5
MEAN_MOTION_DDOT = 0

CCSDS_OMM_VERS = 2.0
CREATION_DATE  = 
ORIGINATOR     = 

OBJECT_NAME    = SL-3 R/B
OBJECT_ID      = 1983-010B
CENTER_NAME    = EARTH
REF_FRAME      = TEME
TIME_SYSTEM    = UTC
MEAN_ELEMENT_THEORY = SGP/SGP4

EPOCH          = 2026-02-05T23:26:24.231840
MEAN_MOTION    = 15.45238880
ECCENTRICITY   = .0017746
INCLINATION    = 81.1022
RA_OF_ASC_NODE = 41.0956
ARG_OF_PERICENTER = 152.2133
MEAN_ANOMALY   = 208.0063

EPHEMERIS_TYPE = 0
CLASSIFICATION_TYPE = U
NORAD_CAT_ID   = 13819
ELEMENT_SET_NO = 999
REV_AT_EPOCH   = 35304
BSTAR          = .41894E-3
MEAN_MOTION_DOT = .2008E-3
MEAN_MOTION_DDOT = 0

CCSDS_OMM_VERS = 2.0
CREATION_DATE  = 
ORIGINATOR     = 

OBJECT_NAME    = SL-3 R/B
OBJECT_ID      = 1983-075B
CENTER_NAME    = EARTH
REF_FRAME      = TEME
TIME_SYSTEM    = UTC
MEAN_ELEMENT_THEORY = SGP/SGP4

EPOCH          = 2026-02-06T06:17:51.267552
MEAN_MOTION    = 15.37602325
ECCENTRICITY   = .00214218
INCLINATION    = 97.6131
RA_OF_ASC_NODE = 40.6749
ARG_OF_PERICENTER = 347.8077
MEAN_ANOMALY   = 12.2646

EPHEMERIS_TYPE = 0
CLASSIFICATION_TYPE = U
NORAD_CAT_ID   = 14208
ELEMENT_SET_NO = 999
REV_AT_EPOCH   = 32532
BSTAR          = .42409057E-3
MEAN_MOTION_DOT = .15697E-3
MEAN_MOTION_DDOT = 0

CCSDS_OMM_VERS = 2.0
CREATION_DATE  = 
ORIGINATOR     = 

OBJECT_NAME    = COSMOS 1536
OBJECT_ID      = 1984-013A
CENTER_NAME    = EARTH
REF_FRAME      = TEME
TIME_SYSTEM    = UTC
MEAN_ELEMENT_THEORY = SGP/SGP4

EPOCH          = 2026-02-05T23:57:49.103136
MEAN_MOTION    = 15.23402379
ECCENTRICITY   = .00150658
INCLINATION    = 82.5476
RA_OF_ASC_NODE = 139.3348
ARG_OF_PERICENTER = 38.6998
MEAN_ANOMALY   = 321.5315

EPHEMERIS_TYPE = 0
CLASSIFICATION_TYPE = U
NORAD_CAT_ID   = 14699
ELEMENT_SET_NO = 999
REV_AT_EPOCH   = 26779
BSTAR          = .39051904E-3
MEAN_MOTION_DOT = .9353E-4
MEAN_MOTION_DDOT = 0

CCSDS_OMM_VERS = 2.0
CREATION_DATE  = 
ORIGINATOR     = 

OBJECT_NAME    = SL-14 R/B
OBJECT_ID      = 1984-027B
CENTER_NAME    = EARTH
REF_FRAME      = TEME
TIME_SYSTEM    = UTC
MEAN_ELEMENT_THEORY = SGP/SGP4

EPOCH          = 2026-02-06T02:40:38.447904
MEAN_MOTION    = 14.85945460
ECCENTRICITY   = .00195239
INCLINATION    = 82.5402
RA_OF_ASC_NODE = 274.6355
ARG_OF_PERICENTER = 78.9578
MEAN_ANOMALY   = 281.3833

EPHEMERIS_TYPE = 0
CLASSIFICATION_TYPE = U
NORAD_CAT_ID   = 14820
ELEMENT_SET_NO = 999
REV_AT_EPOCH   = 24294
BSTAR          = .62954598E-4
MEAN_MOTION_DOT = .576E-5
MEAN_MOTION_DDOT = 0

CCSDS_OMM_VERS = 2.0
CREATION_DATE  = 
ORIGINATOR     = 

OBJECT_NAME    = SL-8 R/B
OBJECT_ID      = 1985-006B
CENTER_NAME    = EARTH
REF_FRAME      = TEME
TIME_SYSTEM    = UTC
MEAN_ELEMENT_THEORY = SGP/SGP4

EPOCH          = 2026-02-06T07:03:57.481056
MEAN_MOTION    = 14.37767400
ECCENTRICITY   = .00195682
INCLINATION    = 74.0475
RA_OF_ASC_NODE = 318.9174
ARG_OF_PERICENTER = 242.7173
MEAN_ANOMALY   = 266.4442

EPHEMERIS_TYPE = 0
CLASSIFICATION_TYPE = U
NORAD_CAT_ID   = 15483
ELEMENT_SET_NO = 999
REV_AT_EPOCH   = 14951
BSTAR          = .12629282E-3
MEAN_MOTION_DOT = .355E-5
MEAN_MOTION_DDOT = 0

CCSDS_OMM_VERS = 2.0
CREATION_DATE  = 
ORIGINATOR     = 

OBJECT_NAME    = SL-12 R/B(2)
OBJECT_ID      = 1985-042D
CENTER_NAME    = EARTH
REF_FRAME      = TEME
TIME_SYSTEM    = UTC
MEAN_ELEMENT_THEORY = SGP/SGP4

EPOCH          = 2026-02-06T07:32:01.822272
MEAN_MOTION    = 14.21973237
ECCENTRICITY   = .00350901
INCLINATION    = 71.1085
RA_OF_ASC_NODE = 154.0152
ARG_OF_PERICENTER = 178.2608
MEAN_ANOMALY   = 212.3267

EPHEMERIS_TYPE = 0
CLASSIFICATION_TYPE = U
NORAD_CAT_ID   = 15772
ELEMENT_SET_NO = 999
REV_AT_EPOCH   = 10993
BSTAR          = .81867759E-4
MEAN_MOTION_DOT = .134E-5
MEAN_MOTION_DDOT = 0

CCSDS_OMM_VERS = 2.0
CREATION_DATE  = 
ORIGINATOR     = 

OBJECT_NAME    = SL-14 R/B
OBJECT_ID      = 1985-069B
CENTER_NAME    = EARTH
REF_FRAME      = TEME
TIME_SYSTEM    = UTC
MEAN_ELEMENT_THEORY = SGP/SGP4

EPOCH          = 2026-02-06T00:55:32.954304
MEAN_MOTION    = 14.86395728
ECCENTRICITY   = .00173968
INCLINATION    = 82.5239
RA_OF_ASC_NODE = 54.7024
ARG_OF_PERICENTER = 299.8834
MEAN_ANOMALY   = 60.0653

EPHEMERIS_TYPE = 0
CLASSIFICATION_TYPE = U
NORAD_CAT_ID   = 15945
ELEMENT_SET_NO = 999
REV_AT_EPOCH   = 16813
BSTAR          = .72928038E-4
MEAN_MOTION_DOT = .669E-5
MEAN_MOTION_DDOT = 0

CCSDS_OMM_VERS = 2.0
CREATION_DATE  = 
ORIGINATOR     = 

OBJECT_NAME    = SL-16 R/B
OBJECT_ID      = 1985-097B
CENTER_NAME    = EARTH
REF_FRAME      = TEME
TIME_SYSTEM    = UTC
MEAN_ELEMENT_THEORY = SGP/SGP4

EPOCH          = 2026-02-05T22:31:25.176576
MEAN_MOTION    = 14.16596202
ECCENTRICITY   = .0009486
INCLINATION    = 71.0014
RA_OF_ASC_NODE = 207.3948
ARG_OF_PERICENTER = 296.9006
MEAN_ANOMALY   = 175.6911

EPHEMERIS_TYPE = 0
CLASSIFICATION_TYPE = U
NORAD_CAT_ID   = 16182
ELEMENT_SET_NO = 999
REV_AT_EPOCH   = 8273
BSTAR          = .53908E-4
MEAN_MOTION_DOT = .6E-6
MEAN_MOTION_DDOT = 0

CCSDS_OMM_VERS = 2.0
CREATION_DATE  = 
ORIGINATOR     = 

OBJECT_NAME    = SL-14 R/B
OBJECT_ID      = 1986-006B
CENTER_NAME    = EARTH
REF_FRAME      = TEME
TIME_SYSTEM    = UTC
MEAN_ELEMENT_THEORY = SGP/SGP4

EPOCH          = 2026-02-06T03:48:18.906624
MEAN_MOTION    = 14.86771380
ECCENTRICITY   = .00771645
INCLINATION    = 82.5271
RA_OF_ASC_NODE = 289.4148
ARG_OF_PERICENTER = 18.3588
MEAN_ANOMALY   = 342.0385

EPHEMERIS_TYPE = 0
CLASSIFICATION_TYPE = U
NORAD_CAT_ID   = 16496
ELEMENT_SET_NO = 999
REV_AT_EPOCH   = 14452
BSTAR          = .103433E-3
MEAN_MOTION_DOT = .999E-5
MEAN_MOTION_DDOT = 0

CCSDS_OMM_VERS = 2.0
CREATION_DATE  = 
ORIGINATOR     = 

OBJECT_NAME    = COSMOS 1743
OBJECT_ID      = 1986-034A
CENTER_NAME    = EARTH
REF_FRAME      = TEME
TIME_SYSTEM    = UTC
MEAN_ELEMENT_THEORY = SGP/SGP4

EPOCH          = 2026-02-06T03:47:24.138528
MEAN_MOTION    = 15.56279843
ECCENTRICITY   = .00051871
INCLINATION    = 82.5330
RA_OF_ASC_NODE = 106.8624
ARG_OF_PERICENTER = 59.3539
MEAN_ANOMALY   = 300.8226

EPHEMERIS_TYPE = 0
CLASSIFICATION_TYPE = U
NORAD_CAT_ID   = 16719
ELEMENT_SET_NO = 999
REV_AT_EPOCH   = 17534
BSTAR          = .5920797E-3
MEAN_MOTION_DOT = .41793E-3
MEAN_MOTION_DDOT = 0

